OBJECT_NAME,OBJECT_ID,EPOCH,MEAN_MOTION,ECCENTRICITY,INCLINATION,RA_OF_ASC_NODE,ARG_OF_PERICENTER,MEAN_ANOMALY,EPHEMERIS_TYPE,CLASSIFICATION_TYPE,NORAD_CAT_ID,ELEMENT_SET_NO,REV_AT_EPOCH,BSTAR,MEAN_MOTION_DOT,MEAN_MOTION_DDOT
TIANMU-1 21,2023-208C,2026-06-30T19:19:31.338048,15.35313538,.0005718,97.4522,301.5658,263.3720,96.6873,0,U,58662,999,13965,.28921E-3,.9843E-4,0
TIANMU-1 22,2023-208D,2026-06-30T20:41:30.007968,15.31244807,.000223,97.4517,298.1580,298.5055,61.5961,0,U,58663,999,13942,.26295E-3,.7858E-4,0
TIANMU-1 15,2024-004A,2026-06-30T11:12:42.827904,15.26842607,.00055281,97.4663,7.6584,295.8697,64.1972,0,U,58700,999,13780,.20671941E-3,.5379E-4,0
TIANMU-1 16,2024-004B,2026-06-30T20:25:11.731872,15.26884037,.0004594,97.4610,7.2663,313.9521,46.1339,0,U,58701,999,13786,.21147E-3,.5511E-4,0
TIANMU-1 17,2024-004C,2026-06-30T20:04:15.856032,15.26882451,.0004239,97.4637,7.7418,321.8683,38.2255,0,U,58702,999,13785,.20901E-3,.5445E-4,0
TIANMU-1 18,2024-004D,2026-06-30T21:03:04.478688,15.26802087,.0003457,97.4656,8.0439,297.3343,62.7544,0,U,58703,999,13786,.20875E-3,.5425E-4,0
INSAT-3DS,2024-033A,2026-06-30T19:35:59.806752,1.00269800,.0001483,0.0688,97.5627,353.0479,204.3162,0,U,58990,999,4720,0,-.145E-5,0
METEOR-M2 4,2024-039A,2026-06-30T19:54:53.165664,14.22430858,.0007955,98.7017,140.9567,124.6889,235.5039,0,U,59051,999,12120,.23224E-4,.8E-7,0
GOES 19,2024-119A,2026-06-30T18:50:56.603904,1.00271774,.0000533,0.0112,146.5388,5.4080,334.4491,0,U,60133,999,710,0,-.238E-5,0
MTG-S1,2025-143A,2026-06-30T17:29:46.419072,1.00272409,.0002834,0.5931,341.7935,265.0704,293.9116,0,U,64723,999,355,0,.3E-7,0
METOP-SGA1,2025-172A,2026-06-30T04:14:42.500256,14.19817036,.0007902,98.6640,240.6295,16.3379,343.8051,0,U,65159,999,4563,.4049376E-4,.43E-6,0
FENGYUN 3H,2025-219A,2026-06-30T18:46:01.274016,14.19922624,.0001427,98.6769,122.2868,66.8698,293.2629,0,U,65815,999,3931,.40409E-4,.42E-6,0
