TIANMU-1 21             
1 58662U 23208C   26181.80522382  .00009843  00000+0  28921-3 0  9998
2 58662  97.4522 301.5658 0005718 263.3720  96.6873 15.35313538139650
TIANMU-1 22             
1 58663U 23208D   26181.86215287  .00007858  00000+0  26295-3 0  9994
2 58663  97.4517 298.1580 0002230 298.5055  61.5961 15.31244807139429
TIANMU-1 15             
1 58700U 24004A   26181.46716236  .00005379  00000+0  20672-3 0  9996
2 58700  97.4663   7.6584 0005528 295.8697  64.1972 15.26842607137802
TIANMU-1 16             
1 58701U 24004B   26181.85083023  .00005511  00000+0  21147-3 0  9997
2 58701  97.4610   7.2663 0004594 313.9521  46.1339 15.26884037137865
TIANMU-1 17             
1 58702U 24004C   26181.83629463  .00005445  00000+0  20901-3 0  9993
2 58702  97.4637   7.7418 0004239 321.8683  38.2255 15.26882451137857
TIANMU-1 18             
1 58703U 24004D   26181.87713517  .00005425  00000+0  20875-3 0  9990
2 58703  97.4656   8.0439 0003457 297.3343  62.7544 15.26802087137868
INSAT-3DS               
1 58990U 24033A   26181.81666443 -.00000145  00000+0  00000+0 0  9998
2 58990   0.0688  97.5627 0001483 353.0479 204.3162  1.00269800 47205
METEOR-M2 4             
1 59051U 24039A   26181.82978201  .00000008  00000+0  23224-4 0  9997
2 59051  98.7017 140.9567 0007955 124.6889 235.5039 14.22430858121200
GOES 19                 
1 60133U 24119A   26181.78537736 -.00000238  00000+0  00000+0 0  9996
2 60133   0.0112 146.5388 0000533   5.4080 334.4491  1.00271774  7107
MTG-S1                  
1 64723U 25143A   26181.72900948  .00000003  00000+0  00000+0 0  9995
2 64723   0.5931 341.7935 0002834 265.0704 293.9116  1.00272409  3554
METOP-SGA1              
1 65159U 25172A   26181.17688079  .00000043  00000+0  40494-4 0  9998
2 65159  98.6640 240.6295 0007902  16.3379 343.8051 14.19817036 45638
FENGYUN 3H              
1 65815U 25219A   26181.78195919  .00000042  00000+0  40409-4 0  9997
2 65815  98.6769 122.2868 0001427  66.8698 293.2629 14.19922624 39317
